CCSDS_OMM_VERS = 2.0
CREATION_DATE  = 
ORIGINATOR     = 

OBJECT_NAME    = STARLINK-36448
OBJECT_ID      = 2026-003W
CENTER_NAME    = EARTH
REF_FRAME      = TEME
TIME_SYSTEM    = UTC
MEAN_ELEMENT_THEORY = SGP/SGP4

EPOCH          = 2026-01-22T06:00:02.999808
MEAN_MOTION    = 15.77638681
ECCENTRICITY   = .00013273
INCLINATION    = 42.9988
RA_OF_ASC_NODE = 134.6556
ARG_OF_PERICENTER = 262.9296
MEAN_ANOMALY   = 349.1642

EPHEMERIS_TYPE = 0
CLASSIFICATION_TYPE = U
NORAD_CAT_ID   = 67354
ELEMENT_SET_NO = 999
REV_AT_EPOCH   = 320
BSTAR          = -.11473645E-1
MEAN_MOTION_DOT = -.1743531E-1
MEAN_MOTION_DDOT = 0

CCSDS_OMM_VERS = 2.0
CREATION_DATE  = 
ORIGINATOR     = 

OBJECT_NAME    = STARLINK-36477
OBJECT_ID      = 2026-003X
CENTER_NAME    = EARTH
REF_FRAME      = TEME
TIME_SYSTEM    = UTC
MEAN_ELEMENT_THEORY = SGP/SGP4

EPOCH          = 2026-01-22T06:00:02.999808
MEAN_MOTION    = 15.77706031
ECCENTRICITY   = .00013163
INCLINATION    = 42.9986
RA_OF_ASC_NODE = 134.6660
ARG_OF_PERICENTER = 268.2624
MEAN_ANOMALY   = 339.8110

EPHEMERIS_TYPE = 0
CLASSIFICATION_TYPE = U
NORAD_CAT_ID   = 67355
ELEMENT_SET_NO = 999
REV_AT_EPOCH   = 319
BSTAR          = -.11399653E-1
MEAN_MOTION_DOT = -.1738282E-1
MEAN_MOTION_DDOT = 0

CCSDS_OMM_VERS = 2.0
CREATION_DATE  = 
ORIGINATOR     = 

OBJECT_NAME    = STARLINK-36429
OBJECT_ID      = 2026-003Y
CENTER_NAME    = EARTH
REF_FRAME      = TEME
TIME_SYSTEM    = UTC
MEAN_ELEMENT_THEORY = SGP/SGP4

EPOCH          = 2026-01-22T06:00:02.999808
MEAN_MOTION    = 15.77672933
ECCENTRICITY   = .00012939
INCLINATION    = 42.9987
RA_OF_ASC_NODE = 134.6607
ARG_OF_PERICENTER = 274.1933
MEAN_ANOMALY   = 335.8991

EPHEMERIS_TYPE = 0
CLASSIFICATION_TYPE = U
NORAD_CAT_ID   = 67356
ELEMENT_SET_NO = 999
REV_AT_EPOCH   = 319
BSTAR          = -.11489737E-1
MEAN_MOTION_DOT = -.1748043E-1
MEAN_MOTION_DDOT = 0

CCSDS_OMM_VERS = 2.0
CREATION_DATE  = 
ORIGINATOR     = 

OBJECT_NAME    = STARLINK-36456
OBJECT_ID      = 2026-003Z
CENTER_NAME    = EARTH
REF_FRAME      = TEME
TIME_SYSTEM    = UTC
MEAN_ELEMENT_THEORY = SGP/SGP4

EPOCH          = 2026-01-22T06:00:02.999808
MEAN_MOTION    = 15.77566105
ECCENTRICITY   = .0001449
INCLINATION    = 42.9987
RA_OF_ASC_NODE = 134.6499
ARG_OF_PERICENTER = 274.2531
MEAN_ANOMALY   = 339.9487

EPHEMERIS_TYPE = 0
CLASSIFICATION_TYPE = U
NORAD_CAT_ID   = 67357
ELEMENT_SET_NO = 999
REV_AT_EPOCH   = 320
BSTAR          = -.11593595E-1
MEAN_MOTION_DOT = -.1754574E-1
MEAN_MOTION_DDOT = 0

CCSDS_OMM_VERS = 2.0
CREATION_DATE  = 
ORIGINATOR     = 

OBJECT_NAME    = STARLINK-36466
OBJECT_ID      = 2026-003AA
CENTER_NAME    = EARTH
REF_FRAME      = TEME
TIME_SYSTEM    = UTC
MEAN_ELEMENT_THEORY = SGP/SGP4

EPOCH          = 2026-01-22T06:00:02.999808
MEAN_MOTION    = 15.77473692
ECCENTRICITY   = .00014704
INCLINATION    = 42.9986
RA_OF_ASC_NODE = 134.6445
ARG_OF_PERICENTER = 272.4579
MEAN_ANOMALY   = 343.8987

EPHEMERIS_TYPE = 0
CLASSIFICATION_TYPE = U
NORAD_CAT_ID   = 67358
ELEMENT_SET_NO = 999
REV_AT_EPOCH   = 320
BSTAR          = -.11731551E-1
MEAN_MOTION_DOT = -.1766424E-1
MEAN_MOTION_DDOT = 0

CCSDS_OMM_VERS = 2.0
CREATION_DATE  = 
ORIGINATOR     = 

OBJECT_NAME    = STARLINK-36499
OBJECT_ID      = 2026-003AB
CENTER_NAME    = EARTH
REF_FRAME      = TEME
TIME_SYSTEM    = UTC
MEAN_ELEMENT_THEORY = SGP/SGP4

EPOCH          = 2026-01-22T06:00:02.999808
MEAN_MOTION    = 15.77392500
ECCENTRICITY   = .00013
INCLINATION    = 42.9984
RA_OF_ASC_NODE = 134.6396
ARG_OF_PERICENTER = 276.8819
MEAN_ANOMALY   = 341.5001

EPHEMERIS_TYPE = 0
CLASSIFICATION_TYPE = U
NORAD_CAT_ID   = 67359
ELEMENT_SET_NO = 999
REV_AT_EPOCH   = 320
BSTAR          = -.1117578E-1
MEAN_MOTION_DOT = -.1686835E-1
MEAN_MOTION_DDOT = 0

CCSDS_OMM_VERS = 2.0
CREATION_DATE  = 
ORIGINATOR     = 

OBJECT_NAME    = STARLINK-36469
OBJECT_ID      = 2026-003AC
CENTER_NAME    = EARTH
REF_FRAME      = TEME
TIME_SYSTEM    = UTC
MEAN_ELEMENT_THEORY = SGP/SGP4

EPOCH          = 2026-01-22T06:00:02.999808
MEAN_MOTION    = 15.77311524
ECCENTRICITY   = .00013148
INCLINATION    = 42.9988
RA_OF_ASC_NODE = 134.6342
ARG_OF_PERICENTER = 268.1535
MEAN_ANOMALY   = 352.3535

EPHEMERIS_TYPE = 0
CLASSIFICATION_TYPE = U
NORAD_CAT_ID   = 67360
ELEMENT_SET_NO = 999
REV_AT_EPOCH   = 320
BSTAR          = -.1138115E-1
MEAN_MOTION_DOT = -.1708685E-1
MEAN_MOTION_DDOT = 0

CCSDS_OMM_VERS = 2.0
CREATION_DATE  = 
ORIGINATOR     = 

OBJECT_NAME    = STARLINK-35306
OBJECT_ID      = 2026-003AD
CENTER_NAME    = EARTH
REF_FRAME      = TEME
TIME_SYSTEM    = UTC
MEAN_ELEMENT_THEORY = SGP/SGP4

EPOCH          = 2026-01-22T06:00:02.999808
MEAN_MOTION    = 15.77277614
ECCENTRICITY   = .00011697
INCLINATION    = 42.9987
RA_OF_ASC_NODE = 134.6283
ARG_OF_PERICENTER = 265.2343
MEAN_ANOMALY   = 357.2699

EPHEMERIS_TYPE = 0
CLASSIFICATION_TYPE = U
NORAD_CAT_ID   = 67361
ELEMENT_SET_NO = 999
REV_AT_EPOCH   = 314
BSTAR          = -.11462392E-1
MEAN_MOTION_DOT = -.1717018E-1
MEAN_MOTION_DDOT = 0

CCSDS_OMM_VERS = 2.0
CREATION_DATE  = 
ORIGINATOR     = 

OBJECT_NAME    = STARLINK-36428
OBJECT_ID      = 2026-003AE
CENTER_NAME    = EARTH
REF_FRAME      = TEME
TIME_SYSTEM    = UTC
MEAN_ELEMENT_THEORY = SGP/SGP4

EPOCH          = 2026-01-22T06:00:02.999808
MEAN_MOTION    = 15.77199629
ECCENTRICITY   = .0001266
INCLINATION    = 42.9986
RA_OF_ASC_NODE = 134.6230
ARG_OF_PERICENTER = 270.2925
MEAN_ANOMALY   = 354.3023

EPHEMERIS_TYPE = 0
CLASSIFICATION_TYPE = U
NORAD_CAT_ID   = 67362
ELEMENT_SET_NO = 999
REV_AT_EPOCH   = 320
BSTAR          = -.11591786E-1
MEAN_MOTION_DOT = -.1728799E-1
MEAN_MOTION_DDOT = 0

CCSDS_OMM_VERS = 2.0
CREATION_DATE  = 
ORIGINATOR     = 

OBJECT_NAME    = SHIJIAN-29B (SJ-29B)
OBJECT_ID      = 2025-315C
CENTER_NAME    = EARTH
REF_FRAME      = TEME
TIME_SYSTEM    = UTC
MEAN_ELEMENT_THEORY = SGP/SGP4

EPOCH          = 2026-01-22T02:12:15.800256
MEAN_MOTION    = 1.00269415
ECCENTRICITY   = .00010524
INCLINATION    = 3.0266
RA_OF_ASC_NODE = 98.9733
ARG_OF_PERICENTER = 305.0493
MEAN_ANOMALY   = 183.5659

EPHEMERIS_TYPE = 0
CLASSIFICATION_TYPE = U
NORAD_CAT_ID   = 67403
ELEMENT_SET_NO = 999
REV_AT_EPOCH   = 22
BSTAR          = 0
MEAN_MOTION_DOT = -.53E-6
MEAN_MOTION_DDOT = 0

CCSDS_OMM_VERS = 2.0
CREATION_DATE  = 
ORIGINATOR     = 

OBJECT_NAME    = STARLINK-36484
OBJECT_ID      = 2026-005A
CENTER_NAME    = EARTH
REF_FRAME      = TEME
TIME_SYSTEM    = UTC
MEAN_ELEMENT_THEORY = SGP/SGP4

EPOCH          = 2026-01-20T20:00:01.999872
MEAN_MOTION    = 15.92369012
ECCENTRICITY   = .00017684
INCLINATION    = 43.0011
RA_OF_ASC_NODE = 156.5855
ARG_OF_PERICENTER = 283.2631
MEAN_ANOMALY   = 23.0433

EPHEMERIS_TYPE = 0
CLASSIFICATION_TYPE = U
NORAD_CAT_ID   = 67404
ELEMENT_SET_NO = 999
REV_AT_EPOCH   = 244
BSTAR          = -.39585294E-2
MEAN_MOTION_DOT = -.1385048E-1
MEAN_MOTION_DDOT = .55019377E-3

CCSDS_OMM_VERS = 2.0
CREATION_DATE  = 
ORIGINATOR     = 

OBJECT_NAME    = STARLINK-36452
OBJECT_ID      = 2026-005B
CENTER_NAME    = EARTH
REF_FRAME      = TEME
TIME_SYSTEM    = UTC
MEAN_ELEMENT_THEORY = SGP/SGP4

EPOCH          = 2026-01-20T20:00:01.999872
MEAN_MOTION    = 15.92421826
ECCENTRICITY   = .00018033
INCLINATION    = 43.0012
RA_OF_ASC_NODE = 156.5805
ARG_OF_PERICENTER = 283.7617
MEAN_ANOMALY   = 24.5468

EPHEMERIS_TYPE = 0
CLASSIFICATION_TYPE = U
NORAD_CAT_ID   = 67405
ELEMENT_SET_NO = 999
REV_AT_EPOCH   = 244
BSTAR          = -.39814727E-2
MEAN_MOTION_DOT = -.13968E-1
MEAN_MOTION_DDOT = .5590652E-3

